{
  "norad_id": 63125,
  "name": "SUPERVIEW NEO-1 03",
  "history": [
    {
      "epoch": "2026-03-27T15:45:41.633568",
      "apogee_km": 502.5015015115523,
      "perigee_km": 499.77895875495506,
      "latitude_deg": 79.77042865529732,
      "longitude_deg": 99.54625952010974,
      "semi_major_axis_km": 6879.277230133253,
      "eccentricity": 0.00019788,
      "inclination_deg": 97.3401,
      "raan_deg": 203.0233,
      "arg_perigee_deg": 118.7242,
      "mean_anomaly_deg": 241.4193,
      "mean_motion_rev_day": 15.21558115
    }
  ]
}