{"fetched_at":"2026-03-29T16:36:15Z","count":15609,"tles":[{"name":"SUPERVIEW NEO-1 03","line1":"1 63125U 25040A   26086.65673187  .00000001  00000+0  30136-5 0  9991","line2":"2 63125  97.3401 203.0233 0001978 118.7242 241.4193 15.21558115 59783","category":"Other"}]}